SAUDISAT 1C             
1 27607U 02058C   23214.05975463  .00001256  00000+0  18994-3 0  9995
2 27607  64.5545 124.2805 0064554 215.1948 144.4885 14.77446174109211
SAUDISAT 2              
1 28371U 04025F   23214.32418568  .00000465  00000+0  11866-3 0  9990
2 28371  98.4355 178.3904 0024117 282.5713  77.2787 14.54988583 13021
SAUDISAT 3              
1 31118U 07012B   23214.37363495  .00000462  00000+0  85623-4 0  9995
2 31118  98.0148 157.7875 0014331 332.8903  27.1553 14.69741223873501
PISAT                   
1 41784U 16059B   23213.75862272  .00001159  00000+0  22442-3 0  9997
2 41784  97.8675 245.1129 0030037 312.4153  47.4510 14.64815253365738
FLYING LAPTOP           
1 42831U 17042G   23214.12740273  .00001420  00000+0  14047-3 0  9995
2 42831  97.3899  49.1016 0014991  74.1510 286.1362 14.93245512329343
SALSAT                  
1 46495U 20068K   23213.44267886  .00004622  00000+0  30270-3 0  9998
2 46495  97.7720 161.9428 0014236 333.2311  26.8180 15.08166757155894
